STARLINK-3564           
1 52302U 22041AT  25330.90917579  .00000443  00000+0  45893-4 0  9994
2 52302  53.2156 190.5191 0001381  90.9743 269.1407 15.08840267199129
STARLINK-3742           
1 52303U 22041AU  25331.05545868  .00003299  00000+0  22533-3 0  9997
2 52303  53.2170 199.8627 0001512  94.7199 265.3966 15.08827920200239
STARLINK-3744           
1 52304U 22041AV  25330.83925365 -.00000068  00000+0  13820-4 0  9999
2 52304  53.2154 190.8337 0001514  88.4909 271.6257 15.08841010199115
STARLINK-3724           
1 52305U 22041AW  25331.05914658 -.00001275  00000+0 -62045-4 0  9993
2 52305  53.2157 199.9552 0001374  81.3043 278.8105 15.08835084199017
STARLINK-3747           
1 52306U 22041AX  25331.10053237  .00000796  00000+0  68117-4 0  9998
2 52306  53.2161 189.6600 0001586  90.0225 270.0949 15.08831931200376
STARLINK-3755           
1 52307U 22041AY  25330.91561608  .00001383  00000+0  10495-3 0  9991
2 52307  53.2150 200.4910 0001392  97.5468 262.5682 15.08843692198998
STARLINK-3756           
1 52309U 22041BA  25330.89813635 -.00000550  00000+0 -16431-4 0  9994
2 52309  53.2172 190.5684 0001901  93.8944 266.2265 15.08839732200346
STARLINK-3688           
1 52310U 22041BB  25331.02694900 -.00002015  00000+0 -10857-3 0  9997
2 52310  53.2156 190.0577 0001486  93.2419 266.8743 15.08828948200361
STARLINK-3750           
1 52311U 22041BC  25331.02327266  .00002153  00000+0  15332-3 0  9990
2 52311  53.2153 190.0071 0001322  89.1110 271.0033 15.08841580200366
STARLINK-3752           
1 52312U 22041BD  25330.85031106 -.00000529  00000+0 -15182-4 0  9997
2 52312  53.2153 190.7337 0001457  86.1623 273.9536 15.08829457200340
STARLINK-3749           
1 52313U 22041BE  25330.85398924 -.00001563  00000+0 -80157-4 0  9995
2 52313  53.2159 190.7667 0001515  78.3115 281.8047 15.08824786200342
STARLINK-3889           
1 52331U 22045A   25330.64421898 -.00000614  00000+0 -20518-4 0  9994
2 52331  53.2188 311.7086 0001537  91.4964 268.6205 15.08836861200083
STARLINK-3831           
1 52332U 22045B   25331.18614657 -.00000505  00000+0 -13639-4 0  9997
2 52332  53.2181 309.2874 0001593  89.7748 270.3427 15.08832250200169
STARLINK-3847           
1 52333U 22045C   25331.18150316 -.00000332  00000+0 -27674-5 0  9998
2 52333  53.2186 309.2981 0001430  90.8321 269.2835 15.08830509200158
STARLINK-3880           
1 52334U 22045D   25331.23670425  .00000743  00000+0  64769-4 0  9992
2 52334  53.2192 309.0494 0001448  89.5446 270.5712 15.08827381200169
STARLINK-3814           
1 52335U 22045E   25331.23301357 -.00002843  00000+0 -16065-3 0  9998
2 52335  53.2179 309.0651 0001178  81.1271 278.9855 15.08837547200170
