[{"OBJECT_NAME":"STARLINK-3564","OBJECT_ID":"2022-041AT","EPOCH":"2025-11-26T21:49:12.788256","MEAN_MOTION":15.08840267,"ECCENTRICITY":0.00013817,"INCLINATION":53.2156,"RA_OF_ASC_NODE":190.5191,"ARG_OF_PERICENTER":90.9743,"MEAN_ANOMALY":269.1407,"EPHEMERIS_TYPE":0,"CLASSIFICATION_TYPE":"U","NORAD_CAT_ID":52302,"ELEMENT_SET_NO":999,"REV_AT_EPOCH":19912,"BSTAR":4.5892669e-5,"MEAN_MOTION_DOT":4.43e-6,"MEAN_MOTION_DDOT":0},{"OBJECT_NAME":"STARLINK-3742","OBJECT_ID":"2022-041AU","EPOCH":"2025-11-27T01:19:51.629952","MEAN_MOTION":15.0882792,"ECCENTRICITY":0.00015127,"INCLINATION":53.217,"RA_OF_ASC_NODE":199.8627,"ARG_OF_PERICENTER":94.7199,"MEAN_ANOMALY":265.3966,"EPHEMERIS_TYPE":0,"CLASSIFICATION_TYPE":"U","NORAD_CAT_ID":52303,"ELEMENT_SET_NO":999,"REV_AT_EPOCH":20023,"BSTAR":0.00022532633,"MEAN_MOTION_DOT":3.299e-5,"MEAN_MOTION_DDOT":0},{"OBJECT_NAME":"STARLINK-3744","OBJECT_ID":"2022-041AV","EPOCH":"2025-11-26T20:08:31.515360","MEAN_MOTION":15.0884101,"ECCENTRICITY":0.0001514,"INCLINATION":53.2154,"RA_OF_ASC_NODE":190.8337,"ARG_OF_PERICENTER":88.4909,"MEAN_ANOMALY":271.6257,"EPHEMERIS_TYPE":0,"CLASSIFICATION_TYPE":"U","NORAD_CAT_ID":52304,"ELEMENT_SET_NO":999,"REV_AT_EPOCH":19911,"BSTAR":1.382e-5,"MEAN_MOTION_DOT":-6.8e-7,"MEAN_MOTION_DDOT":0},{"OBJECT_NAME":"STARLINK-3724","OBJECT_ID":"2022-041AW","EPOCH":"2025-11-27T01:25:10.264512","MEAN_MOTION":15.08835084,"ECCENTRICITY":0.00013744,"INCLINATION":53.2157,"RA_OF_ASC_NODE":199.9552,"ARG_OF_PERICENTER":81.3043,"MEAN_ANOMALY":278.8105,"EPHEMERIS_TYPE":0,"CLASSIFICATION_TYPE":"U","NORAD_CAT_ID":52305,"ELEMENT_SET_NO":999,"REV_AT_EPOCH":19901,"BSTAR":-6.2044831e-5,"MEAN_MOTION_DOT":-1.275e-5,"MEAN_MOTION_DDOT":0},{"OBJECT_NAME":"STARLINK-3747","OBJECT_ID":"2022-041AX","EPOCH":"2025-11-27T02:24:45.996768","MEAN_MOTION":15.08831931,"ECCENTRICITY":0.00015864,"INCLINATION":53.2161,"RA_OF_ASC_NODE":189.66,"ARG_OF_PERICENTER":90.0225,"MEAN_ANOMALY":270.0949,"EPHEMERIS_TYPE":0,"CLASSIFICATION_TYPE":"U","NORAD_CAT_ID":52306,"ELEMENT_SET_NO":999,"REV_AT_EPOCH":20037,"BSTAR":6.8116536e-5,"MEAN_MOTION_DOT":7.96e-6,"MEAN_MOTION_DDOT":0},{"OBJECT_NAME":"STARLINK-3755","OBJECT_ID":"2022-041AY","EPOCH":"2025-11-26T21:58:29.229312","MEAN_MOTION":15.08843692,"ECCENTRICITY":0.00013924,"INCLINATION":53.215,"RA_OF_ASC_NODE":200.491,"ARG_OF_PERICENTER":97.5468,"MEAN_ANOMALY":262.5682,"EPHEMERIS_TYPE":0,"CLASSIFICATION_TYPE":"U","NORAD_CAT_ID":52307,"ELEMENT_SET_NO":999,"REV_AT_EPOCH":19899,"BSTAR":0.00010495029,"MEAN_MOTION_DOT":1.383e-5,"MEAN_MOTION_DDOT":0},{"OBJECT_NAME":"STARLINK-3756","OBJECT_ID":"2022-041BA","EPOCH":"2025-11-26T21:33:18.980640","MEAN_MOTION":15.08839732,"ECCENTRICITY":0.0001901,"INCLINATION":53.2172,"RA_OF_ASC_NODE":190.5684,"ARG_OF_PERICENTER":93.8944,"MEAN_ANOMALY":266.2265,"EPHEMERIS_TYPE":0,"CLASSIFICATION_TYPE":"U","NORAD_CAT_ID":52309,"ELEMENT_SET_NO":999,"REV_AT_EPOCH":20034,"BSTAR":-1.643058e-5,"MEAN_MOTION_DOT":-5.5e-6,"MEAN_MOTION_DDOT":0},{"OBJECT_NAME":"STARLINK-3688","OBJECT_ID":"2022-041BB","EPOCH":"2025-11-27T00:38:48.393600","MEAN_MOTION":15.08828948,"ECCENTRICITY":0.00014861,"INCLINATION":53.2156,"RA_OF_ASC_NODE":190.0577,"ARG_OF_PERICENTER":93.2419,"MEAN_ANOMALY":266.8743,"EPHEMERIS_TYPE":0,"CLASSIFICATION_TYPE":"U","NORAD_CAT_ID":52310,"ELEMENT_SET_NO":999,"REV_AT_EPOCH":20036,"BSTAR":-0.00010857417,"MEAN_MOTION_DOT":-2.015e-5,"MEAN_MOTION_DDOT":0},{"OBJECT_NAME":"STARLINK-3750","OBJECT_ID":"2022-041BC","EPOCH":"2025-11-27T00:33:30.757824","MEAN_MOTION":15.0884158,"ECCENTRICITY":0.00013225,"INCLINATION":53.2153,"RA_OF_ASC_NODE":190.0071,"ARG_OF_PERICENTER":89.111,"MEAN_ANOMALY":271.0033,"EPHEMERIS_TYPE":0,"CLASSIFICATION_TYPE":"U","NORAD_CAT_ID":52311,"ELEMENT_SET_NO":999,"REV_AT_EPOCH":20036,"BSTAR":0.000153315,"MEAN_MOTION_DOT":2.153e-5,"MEAN_MOTION_DDOT":0},{"OBJECT_NAME":"STARLINK-3752","OBJECT_ID":"2022-041BD","EPOCH":"2025-11-26T20:24:26.875584","MEAN_MOTION":15.08829457,"ECCENTRICITY":0.0001457,"INCLINATION":53.2153,"RA_OF_ASC_NODE":190.7337,"ARG_OF_PERICENTER":86.1623,"MEAN_ANOMALY":273.9536,"EPHEMERIS_TYPE":0,"CLASSIFICATION_TYPE":"U","NORAD_CAT_ID":52312,"ELEMENT_SET_NO":999,"REV_AT_EPOCH":20034,"BSTAR":-1.5182e-5,"MEAN_MOTION_DOT":-5.29e-6,"MEAN_MOTION_DDOT":0},{"OBJECT_NAME":"STARLINK-3749","OBJECT_ID":"2022-041BE","EPOCH":"2025-11-26T20:29:44.670336","MEAN_MOTION":15.08824786,"ECCENTRICITY":0.0001515,"INCLINATION":53.2159,"RA_OF_ASC_NODE":190.7667,"ARG_OF_PERICENTER":78.3115,"MEAN_ANOMALY":281.8047,"EPHEMERIS_TYPE":0,"CLASSIFICATION_TYPE":"U","NORAD_CAT_ID":52313,"ELEMENT_SET_NO":999,"REV_AT_EPOCH":20034,"BSTAR":-8.0157e-5,"MEAN_MOTION_DOT":-1.563e-5,"MEAN_MOTION_DDOT":0},{"OBJECT_NAME":"STARLINK-3889","OBJECT_ID":"2022-045A","EPOCH":"2025-11-26T15:27:40.519872","MEAN_MOTION":15.08836861,"ECCENTRICITY":0.00015373,"INCLINATION":53.2188,"RA_OF_ASC_NODE":311.7086,"ARG_OF_PERICENTER":91.4964,"MEAN_ANOMALY":268.6205,"EPHEMERIS_TYPE":0,"CLASSIFICATION_TYPE":"U","NORAD_CAT_ID":52331,"ELEMENT_SET_NO":999,"REV_AT_EPOCH":20008,"BSTAR":-2.0517803e-5,"MEAN_MOTION_DOT":-6.14e-6,"MEAN_MOTION_DDOT":0},{"OBJECT_NAME":"STARLINK-3831","OBJECT_ID":"2022-045B","EPOCH":"2025-11-27T04:28:03.063648","MEAN_MOTION":15.0883225,"ECCENTRICITY":0.00015934,"INCLINATION":53.2181,"RA_OF_ASC_NODE":309.2874,"ARG_OF_PERICENTER":89.7748,"MEAN_ANOMALY":270.3427,"EPHEMERIS_TYPE":0,"CLASSIFICATION_TYPE":"U","NORAD_CAT_ID":52332,"ELEMENT_SET_NO":999,"REV_AT_EPOCH":20016,"BSTAR":-1.3639039e-5,"MEAN_MOTION_DOT":-5.05e-6,"MEAN_MOTION_DDOT":0},{"OBJECT_NAME":"STARLINK-3847","OBJECT_ID":"2022-045C","EPOCH":"2025-11-27T04:21:21.873024","MEAN_MOTION":15.08830509,"ECCENTRICITY":0.00014307,"INCLINATION":53.2186,"RA_OF_ASC_NODE":309.2981,"ARG_OF_PERICENTER":90.8321,"MEAN_ANOMALY":269.2835,"EPHEMERIS_TYPE":0,"CLASSIFICATION_TYPE":"U","NORAD_CAT_ID":52333,"ELEMENT_SET_NO":999,"REV_AT_EPOCH":20015,"BSTAR":-2.76738e-6,"MEAN_MOTION_DOT":-3.32e-6,"MEAN_MOTION_DDOT":0},{"OBJECT_NAME":"STARLINK-3880","OBJECT_ID":"2022-045D","EPOCH":"2025-11-27T05:40:51.247200","MEAN_MOTION":15.08827381,"ECCENTRICITY":0.00014489,"INCLINATION":53.2192,"RA_OF_ASC_NODE":309.0494,"ARG_OF_PERICENTER":89.5446,"MEAN_ANOMALY":270.5712,"EPHEMERIS_TYPE":0,"CLASSIFICATION_TYPE":"U","NORAD_CAT_ID":52334,"ELEMENT_SET_NO":999,"REV_AT_EPOCH":20016,"BSTAR":6.476883e-5,"MEAN_MOTION_DOT":7.43e-6,"MEAN_MOTION_DDOT":0},{"OBJECT_NAME":"STARLINK-3814","OBJECT_ID":"2022-045E","EPOCH":"2025-11-27T05:35:32.372448","MEAN_MOTION":15.08837547,"ECCENTRICITY":0.00011782,"INCLINATION":53.2179,"RA_OF_ASC_NODE":309.0651,"ARG_OF_PERICENTER":81.1271,"MEAN_ANOMALY":278.9855,"EPHEMERIS_TYPE":0,"CLASSIFICATION_TYPE":"U","NORAD_CAT_ID":52335,"ELEMENT_SET_NO":999,"REV_AT_EPOCH":20017,"BSTAR":-0.00016064756,"MEAN_MOTION_DOT":-2.843e-5,"MEAN_MOTION_DDOT":0}]
